[{"OBJECT_NAME":"ONEWEB-0141","OBJECT_ID":"2020-100AF","EPOCH":"2025-10-09T06:29:37.634208","MEAN_MOTION":13.12441181,"ECCENTRICITY":0.00019156,"INCLINATION":87.8947,"RA_OF_ASC_NODE":40.4931,"ARG_OF_PERICENTER":92.0363,"MEAN_ANOMALY":268.0985,"EPHEMERIS_TYPE":0,"CLASSIFICATION_TYPE":"U","NORAD_CAT_ID":47287,"ELEMENT_SET_NO":999,"REV_AT_EPOCH":23176,"BSTAR":-0.00040652135,"MEAN_MOTION_DOT":-1.34e-6,"MEAN_MOTION_DDOT":0},{"OBJECT_NAME":"ONEWEB-0142","OBJECT_ID":"2020-100AG","EPOCH":"2025-10-09T06:13:41.224224","MEAN_MOTION":13.12443486,"ECCENTRICITY":0.00020877,"INCLINATION":87.8954,"RA_OF_ASC_NODE":40.5137,"ARG_OF_PERICENTER":93.9054,"MEAN_ANOMALY":266.2313,"EPHEMERIS_TYPE":0,"CLASSIFICATION_TYPE":"U","NORAD_CAT_ID":47288,"ELEMENT_SET_NO":999,"REV_AT_EPOCH":23175,"BSTAR":0.00045318379,"MEAN_MOTION_DOT":1.76e-6,"MEAN_MOTION_DDOT":0},{"OBJECT_NAME":"ONEWEB-0143","OBJECT_ID":"2020-100AH","EPOCH":"2025-10-09T06:27:29.124576","MEAN_MOTION":13.12440872,"ECCENTRICITY":0.00016545,"INCLINATION":87.8954,"RA_OF_ASC_NODE":40.5085,"ARG_OF_PERICENTER":99.826,"MEAN_ANOMALY":260.3055,"EPHEMERIS_TYPE":0,"CLASSIFICATION_TYPE":"U","NORAD_CAT_ID":47289,"ELEMENT_SET_NO":999,"REV_AT_EPOCH":23173,"BSTAR":-0.00037123451,"MEAN_MOTION_DOT":-1.21e-6,"MEAN_MOTION_DDOT":0},{"OBJECT_NAME":"ONEWEB-0144","OBJECT_ID":"2020-100AJ","EPOCH":"2025-10-09T07:37:34.654944","MEAN_MOTION":13.12442536,"ECCENTRICITY":0.00020176,"INCLINATION":87.8945,"RA_OF_ASC_NODE":40.4718,"ARG_OF_PERICENTER":101.9342,"MEAN_ANOMALY":258.2013,"EPHEMERIS_TYPE":0,"CLASSIFICATION_TYPE":"U","NORAD_CAT_ID":47290,"ELEMENT_SET_NO":999,"REV_AT_EPOCH":23166,"BSTAR":0.0012318064,"MEAN_MOTION_DOT":4.56e-6,"MEAN_MOTION_DDOT":0},{"OBJECT_NAME":"ONEWEB-0145","OBJECT_ID":"2020-100AK","EPOCH":"2025-10-09T06:55:30.758880","MEAN_MOTION":13.12442956,"ECCENTRICITY":0.00017854,"INCLINATION":87.8951,"RA_OF_ASC_NODE":40.5109,"ARG_OF_PERICENTER":101.7805,"MEAN_ANOMALY":258.3524,"EPHEMERIS_TYPE":0,"CLASSIFICATION_TYPE":"U","NORAD_CAT_ID":47291,"ELEMENT_SET_NO":999,"REV_AT_EPOCH":23185,"BSTAR":-0.00085439619,"MEAN_MOTION_DOT":-2.95e-6,"MEAN_MOTION_DDOT":0},{"OBJECT_NAME":"ONEWEB-0146","OBJECT_ID":"2020-100AL","EPOCH":"2025-10-09T06:50:50.747712","MEAN_MOTION":13.12443106,"ECCENTRICITY":0.000135,"INCLINATION":87.8952,"RA_OF_ASC_NODE":40.4985,"ARG_OF_PERICENTER":97.8056,"MEAN_ANOMALY":262.3225,"EPHEMERIS_TYPE":0,"CLASSIFICATION_TYPE":"U","NORAD_CAT_ID":47292,"ELEMENT_SET_NO":999,"REV_AT_EPOCH":23176,"BSTAR":-0.00091513044,"MEAN_MOTION_DOT":-3.16e-6,"MEAN_MOTION_DDOT":0},{"OBJECT_NAME":"ONEWEB-0147","OBJECT_ID":"2020-100AM","EPOCH":"2025-10-09T06:01:48.109728","MEAN_MOTION":13.1244213,"ECCENTRICITY":0.00017425,"INCLINATION":87.8951,"RA_OF_ASC_NODE":40.4831,"ARG_OF_PERICENTER":107.7227,"MEAN_ANOMALY":252.4092,"EPHEMERIS_TYPE":0,"CLASSIFICATION_TYPE":"U","NORAD_CAT_ID":47293,"ELEMENT_SET_NO":999,"REV_AT_EPOCH":23165,"BSTAR":0.0010453459,"MEAN_MOTION_DOT":3.89e-6,"MEAN_MOTION_DDOT":0},{"OBJECT_NAME":"ONEWEB-0115","OBJECT_ID":"2021-025A","EPOCH":"2025-10-09T05:55:16.360032","MEAN_MOTION":13.13470243,"ECCENTRICITY":0.00017538,"INCLINATION":87.906,"RA_OF_ASC_NODE":10.0753,"ARG_OF_PERICENTER":100.5255,"MEAN_ANOMALY":259.6071,"EPHEMERIS_TYPE":0,"CLASSIFICATION_TYPE":"U","NORAD_CAT_ID":48042,"ELEMENT_SET_NO":999,"REV_AT_EPOCH":22065,"BSTAR":0.00095439283,"MEAN_MOTION_DOT":3.61e-6,"MEAN_MOTION_DDOT":0},{"OBJECT_NAME":"ONEWEB-0152","OBJECT_ID":"2021-025B","EPOCH":"2025-10-09T06:14:46.077792","MEAN_MOTION":13.13468739,"ECCENTRICITY":0.00016747,"INCLINATION":87.9051,"RA_OF_ASC_NODE":10.0856,"ARG_OF_PERICENTER":102.5455,"MEAN_ANOMALY":257.5862,"EPHEMERIS_TYPE":0,"CLASSIFICATION_TYPE":"U","NORAD_CAT_ID":48043,"ELEMENT_SET_NO":999,"REV_AT_EPOCH":22061,"BSTAR":0.0001313217,"MEAN_MOTION_DOT":6.1e-7,"MEAN_MOTION_DDOT":0},{"OBJECT_NAME":"ONEWEB-0153","OBJECT_ID":"2021-025C","EPOCH":"2025-10-09T05:43:05.262240","MEAN_MOTION":13.13469203,"ECCENTRICITY":0.00018681,"INCLINATION":87.9059,"RA_OF_ASC_NODE":10.091,"ARG_OF_PERICENTER":100.1323,"MEAN_ANOMALY":260.0017,"EPHEMERIS_TYPE":0,"CLASSIFICATION_TYPE":"U","NORAD_CAT_ID":48044,"ELEMENT_SET_NO":999,"REV_AT_EPOCH":22060,"BSTAR":0.0011015271,"MEAN_MOTION_DOT":4.15e-6,"MEAN_MOTION_DDOT":0},{"OBJECT_NAME":"ONEWEB-0154","OBJECT_ID":"2021-025D","EPOCH":"2025-10-09T05:38:12.690240","MEAN_MOTION":13.13471115,"ECCENTRICITY":0.00018007,"INCLINATION":87.9054,"RA_OF_ASC_NODE":10.088,"ARG_OF_PERICENTER":103.1001,"MEAN_ANOMALY":257.0329,"EPHEMERIS_TYPE":0,"CLASSIFICATION_TYPE":"U","NORAD_CAT_ID":48045,"ELEMENT_SET_NO":999,"REV_AT_EPOCH":22056,"BSTAR":0.0010586441,"MEAN_MOTION_DOT":3.99e-6,"MEAN_MOTION_DDOT":0},{"OBJECT_NAME":"ONEWEB-0116","OBJECT_ID":"2021-025E","EPOCH":"2025-10-09T06:34:16.332096","MEAN_MOTION":13.13470061,"ECCENTRICITY":0.0001649,"INCLINATION":87.9057,"RA_OF_ASC_NODE":10.0633,"ARG_OF_PERICENTER":101.3525,"MEAN_ANOMALY":258.7789,"EPHEMERIS_TYPE":0,"CLASSIFICATION_TYPE":"U","NORAD_CAT_ID":48046,"ELEMENT_SET_NO":999,"REV_AT_EPOCH":22071,"BSTAR":-0.00093859718,"MEAN_MOTION_DOT":-3.3e-6,"MEAN_MOTION_DDOT":0},{"OBJECT_NAME":"ONEWEB-0150","OBJECT_ID":"2021-025F","EPOCH":"2025-10-09T06:00:09.169632","MEAN_MOTION":13.13469571,"ECCENTRICITY":0.00018784,"INCLINATION":87.906,"RA_OF_ASC_NODE":10.0628,"ARG_OF_PERICENTER":95.0461,"MEAN_ANOMALY":265.0882,"EPHEMERIS_TYPE":0,"CLASSIFICATION_TYPE":"U","NORAD_CAT_ID":48047,"ELEMENT_SET_NO":999,"REV_AT_EPOCH":22060,"BSTAR":0.00066218343,"MEAN_MOTION_DOT":2.55e-6,"MEAN_MOTION_DDOT":0},{"OBJECT_NAME":"ONEWEB-0107","OBJECT_ID":"2021-025G","EPOCH":"2025-10-09T06:02:35.650464","MEAN_MOTION":13.13470595,"ECCENTRICITY":0.00021714,"INCLINATION":87.9058,"RA_OF_ASC_NODE":10.0598,"ARG_OF_PERICENTER":102.5458,"MEAN_ANOMALY":257.5914,"EPHEMERIS_TYPE":0,"CLASSIFICATION_TYPE":"U","NORAD_CAT_ID":48048,"ELEMENT_SET_NO":999,"REV_AT_EPOCH":22058,"BSTAR":0.0005382268,"MEAN_MOTION_DOT":2.09e-6,"MEAN_MOTION_DDOT":0},{"OBJECT_NAME":"ONEWEB-0101","OBJECT_ID":"2021-025H","EPOCH":"2025-10-09T05:08:58.587936","MEAN_MOTION":13.13470523,"ECCENTRICITY":0.0001912,"INCLINATION":87.9045,"RA_OF_ASC_NODE":10.105,"ARG_OF_PERICENTER":104.6554,"MEAN_ANOMALY":255.4787,"EPHEMERIS_TYPE":0,"CLASSIFICATION_TYPE":"U","NORAD_CAT_ID":48049,"ELEMENT_SET_NO":999,"REV_AT_EPOCH":22055,"BSTAR":-0.0001366059,"MEAN_MOTION_DOT":-3.7e-7,"MEAN_MOTION_DDOT":0},{"OBJECT_NAME":"ONEWEB-0113","OBJECT_ID":"2021-025J","EPOCH":"2025-10-09T06:08:38.494176","MEAN_MOTION":13.13979615,"ECCENTRICITY":0.00016717,"INCLINATION":87.9056,"RA_OF_ASC_NODE":10.0338,"ARG_OF_PERICENTER":94.8719,"MEAN_ANOMALY":265.2601,"EPHEMERIS_TYPE":0,"CLASSIFICATION_TYPE":"U","NORAD_CAT_ID":48050,"ELEMENT_SET_NO":999,"REV_AT_EPOCH":22065,"BSTAR":0.0004898115,"MEAN_MOTION_DOT":1.93e-6,"MEAN_MOTION_DDOT":0}]
