ONEWEB-0141             
1 47287U 20100AF  25282.27057447 -.00000134  00000+0 -40652-3 0  9995
2 47287  87.8947  40.4931 0001915  92.0363 268.0985 13.12441181231766
ONEWEB-0142             
1 47288U 20100AG  25282.25950491  .00000176  00000+0  45318-3 0  9993
2 47288  87.8954  40.5137 0002087  93.9054 266.2313 13.12443486231756
ONEWEB-0143             
1 47289U 20100AH  25282.26908709 -.00000121  00000+0 -37123-3 0  9997
2 47289  87.8954  40.5085 0001654  99.8260 260.3055 13.12440872231734
ONEWEB-0144             
1 47290U 20100AJ  25282.31776221  .00000456  00000+0  12318-2 0  9994
2 47290  87.8945  40.4718 0002017 101.9342 258.2013 13.12442536231669
ONEWEB-0145             
1 47291U 20100AK  25282.28855045 -.00000295  00000+0 -85440-3 0  9993
2 47291  87.8951  40.5109 0001785 101.7805 258.3524 13.12442956231850
ONEWEB-0146             
1 47292U 20100AL  25282.28530958 -.00000316  00000+0 -91513-3 0  9999
2 47292  87.8952  40.4985 0001350  97.8056 262.3225 13.12443106231765
ONEWEB-0147             
1 47293U 20100AM  25282.25125127  .00000389  00000+0  10453-2 0  9996
2 47293  87.8951  40.4831 0001742 107.7227 252.4092 13.12442130231657
ONEWEB-0115             
1 48042U 21025A   25282.24671713  .00000361  00000+0  95439-3 0  9990
2 48042  87.9060  10.0753 0001753 100.5255 259.6071 13.13470243220653
ONEWEB-0152             
1 48043U 21025B   25282.26025553  .00000061  00000+0  13132-3 0  9995
2 48043  87.9051  10.0856 0001674 102.5455 257.5862 13.13468739220612
ONEWEB-0153             
1 48044U 21025C   25282.23825535  .00000415  00000+0  11015-2 0  9991
2 48044  87.9059  10.0910 0001868 100.1323 260.0017 13.13469203220602
ONEWEB-0154             
1 48045U 21025D   25282.23486910  .00000399  00000+0  10586-2 0  9995
2 48045  87.9054  10.0880 0001800 103.1001 257.0329 13.13471115220568
ONEWEB-0116             
1 48046U 21025E   25282.27380014 -.00000330  00000+0 -93860-3 0  9992
2 48046  87.9057  10.0633 0001649 101.3525 258.7789 13.13470061220714
ONEWEB-0150             
1 48047U 21025F   25282.25010613  .00000255  00000+0  66218-3 0  9997
2 48047  87.9060  10.0628 0001878  95.0461 265.0882 13.13469571220602
ONEWEB-0107             
1 48048U 21025G   25282.25180151  .00000209  00000+0  53823-3 0  9990
2 48048  87.9058  10.0598 0002171 102.5458 257.5914 13.13470595220580
ONEWEB-0101             
1 48049U 21025H   25282.21456699 -.00000037  00000+0 -13661-3 0  9997
2 48049  87.9045  10.1050 0001912 104.6554 255.4787 13.13470523220556
ONEWEB-0113             
1 48050U 21025J   25282.25600109  .00000193  00000+0  48981-3 0  9994
2 48050  87.9056  10.0338 0001671  94.8719 265.2601 13.13979615220654
